IRIDIUM 126             
1 42809U 17039G   24240.81290072  .00000449  00000+0  15325-3 0  9999
2 42809  86.3916 268.7497 0002303  88.4906 271.6553 14.34220881375584
IRIDIUM 124             
1 42810U 17039H   24240.82537320  .00001127  00000+0  32921-3 0  9997
2 42810  86.4525 205.4989 0002059  85.6723 274.4713 14.43265752380155
IRIDIUM 128             
1 42811U 17039J   24240.87341236  .00000452  00000+0  15417-3 0  9993
2 42811  86.3958 300.2706 0002024  90.1640 269.9788 14.34218241375625
IRIDIUM 121             
1 42812U 17039K   24240.48308593  .00000563  00000+0  19398-3 0  9995
2 42812  86.3915 268.9110 0002175  91.2643 268.8802 14.34217437375418
IRIDIUM 122             
1 42957U 17061C   24240.86706893  .00000140  00000+0  43028-4 0  9996
2 42957  86.3958 300.3072 0002197  89.1172 271.0275 14.34217429360426
